[Satellite]
VERSION=1.1
NAME=SL-16 R/B
NICKNAME=SL-16 R/B
TLE1=1 23088U 94023B   18020.91694725  .00000255  00000-0  15753-3 0  9999
TLE2=2 23088  70.9983 185.0710 0002313 167.1843 192.9339 14.14662464226060
